1 41474U 98067HU  16193.71201801  .00035497  00000-0  46719-3 0  99982 41474  51.6443 294.8196 0001946 252.8218 259.1762 15.58107737  8758